NORAD_CAT_ID,OBJECT_NAME,OBJECT_TYPE,EPOCH,MEAN_MOTION,ECCENTRICITY,INCLINATION,RA_OF_ASC_NODE,ARG_OF_PERICENTER,MEAN_ANOMALY,BSTAR,MEAN_MOTION_DOT,MEAN_MOTION_DDOT,TLE_LINE0,TLE_LINE1,TLE_LINE2,SEMIMAJOR_AXIS,PERIOD,APOGEE,PERIGEE,DECAYED
55640.0,STARLINK-5069,PAYLOAD,2024-06-28 18:23:35,14.98342711,0.0003113,70.0005,304.9411,271.036,89.0442,0.00017947,2.05e-05,0.0,0 STARLINK-5069,1 55640U 23021N   24180.76638109  .00002050  00000-0  17947-3 0  9991,2 55640  70.0005 304.9411 0003113 271.0360  89.0442 14.98342711 75787,6950.154,96.106,574.182,569.855,0.0
55640.0,STARLINK-5069,PAYLOAD,2024-06-29 13:37:13,14.98318821,0.0002878,70.0021,302.9244,267.0607,93.0223,0.00015976,1.813e-05,0.0,0 STARLINK-5069,1 55640U 23021N   24181.56751541  .00001813  00000-0  15976-3 0  9992,2 55640  70.0021 302.9244 0002878 267.0607  93.0223 14.98318821 75904,6950.227,96.108,574.093,570.092,0.0
55640.0,STARLINK-5069,PAYLOAD,2024-06-29 15:13:21,14.98331531,0.0002878,70.0012,302.7551,262.4647,97.6185,5.4241e-06,-2.8e-07,0.0,0 STARLINK-5069,1 55640U 23021N   24181.63427140 -.00000028  00000-0  54241-5 0  9993,2 55640  70.0012 302.7551 0002878 262.4647  97.6185 14.98331531 76211,6950.188,96.107,574.053,570.053,0.0
55640.0,STARLINK-5069,PAYLOAD,2024-06-29 18:25:37,14.98331248,0.0002857,70.0015,302.4193,258.8602,101.2235,9.0031e-06,1.4e-07,0.0,0 STARLINK-5069,1 55640U 23021N   24181.76779102  .00000014  00000-0  90031-5 0  9996,2 55640  70.0015 302.4193 0002857 258.8602 101.2235 14.98331248 75931,6950.189,96.107,574.04,570.068,0.0
55640.0,STARLINK-5069,PAYLOAD,2024-06-30 12:03:06,14.98328533,0.0002888,70.0007,300.5652,269.3591,90.7237,-2.1252e-05,-3.47e-06,0.0,0 STARLINK-5069,1 55640U 23021N   24182.50215384 -.00000347  00000-0 -21252-4 0  9995,2 55640  70.0007 300.5652 0002888 269.3591  90.7237 14.98328533 76342,6950.197,96.107,574.07,570.055,0.0
55640.0,STARLINK-5069,PAYLOAD,2024-06-30 18:27:37,14.98333751,0.0003153,70.0008,299.8922,273.7834,86.2965,1.9413e-05,1.39e-06,0.0,0 STARLINK-5069,1 55640U 23021N   24182.76918937  .00000139  00000-0  19413-4 0  9990,2 55640  70.0008 299.8922 0003153 273.7834  86.2965 14.98333751 76085,6950.181,96.107,574.238,569.855,0.0
55640.0,STARLINK-5069,PAYLOAD,2024-07-01 00:52:09,14.98381378,0.0003058,70.0011,299.2182,265.0866,94.9944,-0.00093777,-0.00011279,0.0,0 STARLINK-5069,1 55640U 23021N   24183.03621800 -.00011279  00000-0 -93777-3 0  9994,2 55640  70.0011 299.2182 0003058 265.0866  94.9944 14.98381378 76120,6950.034,96.104,574.024,569.774,0.0
55640.0,STARLINK-5069,PAYLOAD,2024-07-01 13:41:14,14.98326847,0.0002991,70.0007,297.8725,268.9903,91.0913,8.7067e-05,9.46e-06,0.0,0 STARLINK-5069,1 55640U 23021N   24183.57031244  .00000946  00000-0  87067-4 0  9993,2 55640  70.0007 297.8725 0002991 268.9903  91.0913 14.98326847 76204,6950.203,96.107,574.146,569.989,0.0
55640.0,STARLINK-5069,PAYLOAD,2024-07-01 16:53:31,14.98329167,0.0002822,70.0007,297.536,266.0714,94.0122,7.8383e-05,8.42e-06,0.0,0 STARLINK-5069,1 55640U 23021N   24183.70383158  .00000842  00000-0  78383-4 0  9998,2 55640  70.0007 297.5360 0002822 266.0714  94.0122 14.98329167 76526,6950.195,96.107,574.022,570.099,0.0
55640.0,STARLINK-5069,PAYLOAD,2024-07-02 13:43:16,14.9832512,0.0002966,70.0011,295.3485,270.0283,90.0537,4.7139e-05,4.69e-06,0.0,0 STARLINK-5069,1 55640U 23021N   24184.57171681  .00000469  00000-0  47139-4 0  9990,2 55640  70.0011 295.3485 0002966 270.0283  90.0537 14.98325120 76352,6950.208,96.107,574.134,570.012,0.0
55640.0,STARLINK-5069,PAYLOAD,2024-07-02 16:55:32,14.98325773,0.0002864,70.0007,295.0113,268.6857,91.3974,1.5826e-05,9.6e-07,0.0,0 STARLINK-5069,1 55640U 23021N   24184.70523748  .00000096  00000-0  15826-4 0  9994,2 55640  70.0007 295.0113 0002864 268.6857  91.3974 14.98325773 76677,6950.206,96.107,574.062,570.08,0.0
55640.0,STARLINK-5069,PAYLOAD,2024-07-03 13:45:16,14.98333045,0.0003184,70.0006,292.8235,272.5914,87.4881,0.00010399,1.148e-05,0.0,0 STARLINK-5069,1 55640U 23021N   24185.57311069  .00001148  00000-0  10399-3 0  9999,2 55640  70.0006 292.8235 0003184 272.5914  87.4881 14.98333045 76506,6950.183,96.107,574.261,569.836,0.0
55640.0,STARLINK-5069,PAYLOAD,2024-07-03 16:57:32,14.98341576,0.0002744,70.0006,292.4863,267.0474,93.0371,-2.5869e-05,-4.02e-06,0.0,0 STARLINK-5069,1 55640U 23021N   24185.70662786 -.00000402  00000-0 -25869-4 0  9992,2 55640  70.0006 292.4863 0002744 267.0474  93.0371 14.98341576 76820,6950.157,96.106,573.929,570.115,0.0
55640.0,STARLINK-5069,PAYLOAD,2024-07-04 13:47:17,14.98329283,0.0003002,70.0003,290.2972,267.7716,92.3099,6.8506e-05,7.24e-06,0.0,0 STARLINK-5069,1 55640U 23021N   24186.57451374  .00000724  00000-0  68506-4 0  9997,2 55640  70.0003 290.2972 0003002 267.7716  92.3099 14.98329283 76659,6950.195,96.107,574.147,569.974,0.0
55640.0,STARLINK-5069,PAYLOAD,2024-07-04 16:59:33,14.98332541,0.0003044,70.0004,289.9604,269.2901,90.7909,9.6406e-05,1.058e-05,0.0,0 STARLINK-5069,1 55640U 23021N   24186.70803092  .00001058  00000-0  96406-4 0  9991,2 55640  70.0004 289.9604 0003044 269.2901  90.7909 14.98332541 76974,6950.185,96.107,574.166,569.934,0.0
55640.0,STARLINK-5069,PAYLOAD,2024-07-05 13:49:17,14.98343308,0.0003087,70.0002,287.7722,269.0967,90.9838,8.387e-05,9.08e-06,0.0,0 STARLINK-5069,1 55640U 23021N   24187.57590202  .00000908  00000-0  83870-4 0  9997,2 55640  70.0002 287.7722 0003087 269.0967  90.9838 14.98343308 76804,6950.152,96.106,574.162,569.871,0.0
55640.0,STARLINK-5069,PAYLOAD,2024-07-05 17:01:33,14.98343392,0.0002978,70.0004,287.4357,270.2545,89.8273,9.629e-05,1.056e-05,0.0,0 STARLINK-5069,1 55640U 23021N   24187.70942101  .00001056  00000-0  96290-4 0  9996,2 55640  70.0004 287.4357 0002978 270.2545  89.8273 14.98343392 77120,6950.151,96.106,574.086,569.947,0.0
55640.0,STARLINK-5069,PAYLOAD,2024-07-06 05:50:39,14.98327856,0.0002954,70.0006,286.0902,268.6398,91.4422,9.7728e-05,1.073e-05,0.0,0 STARLINK-5069,1 55640U 23021N   24188.24350964  .00001073  00000-0  97728-4 0  9992,2 55640  70.0006 286.0902 0002954 268.6398  91.4422 14.98327856 76901,6950.2,96.107,574.118,570.011,0.0
55640.0,STARLINK-5069,PAYLOAD,2024-07-06 13:51:19,14.98325389,0.0002888,70.0007,285.2485,265.3544,94.7285,-1.6931e-05,-2.95e-06,0.0,0 STARLINK-5069,1 55640U 23021N   24188.57731381 -.00000295  00000-0 -16931-4 0  9998,2 55640  70.0007 285.2485 0002888 265.3544  94.7285 14.98325389 77253,6950.207,96.107,574.079,570.065,0.0
55640.0,STARLINK-5069,PAYLOAD,2024-07-06 17:03:36,14.9832577,0.0002878,70.0007,284.9119,265.5335,94.5495,-1.2601e-05,-2.43e-06,0.0,0 STARLINK-5069,1 55640U 23021N   24188.71083363 -.00000243  00000-0 -12601-4 0  9997,2 55640  70.0007 284.9119 0002878 265.5335  94.5495 14.98325770 77279,6950.206,96.107,574.071,570.071,0.0
55640.0,STARLINK-5069,PAYLOAD,2024-07-07 05:52:40,14.98331247,0.0002844,70.0007,283.5653,267.0197,93.0637,-4.9939e-05,-6.89e-06,0.0,0 STARLINK-5069,1 55640U 23021N   24189.24491158 -.00000689  00000-0 -49939-4 0  9999,2 55640  70.0007 283.5653 0002844 267.0197  93.0637 14.98331247 77057,6950.189,96.107,574.031,570.077,0.0
55640.0,STARLINK-5069,PAYLOAD,2024-07-07 13:53:21,14.98323651,0.0002952,70.0005,282.7239,268.312,91.7701,-0.00012389,-1.571e-05,0.0,0 STARLINK-5069,1 55640U 23021N   24189.57871892 -.00001571  00000-0 -12389-3 0  9991,2 55640  70.0005 282.7239 0002952 268.3120  91.7701 14.98323651 77402,6950.213,96.107,574.129,570.026,0.0
55640.0,STARLINK-5069,PAYLOAD,2024-07-07 15:29:29,14.98323704,0.0002953,70.0005,282.5556,268.5625,91.5196,-0.0001225,-1.554e-05,0.0,0 STARLINK-5069,1 55640U 23021N   24189.64547908 -.00001554  00000-0 -12250-3 0  9995,2 55640  70.0005 282.5556 0002953 268.5625  91.5196 14.98323704 77118,6950.212,96.107,574.13,570.025,0.0
55640.0,STARLINK-5069,PAYLOAD,2024-07-08 12:19:13,14.98334816,0.0003251,69.9998,280.3661,269.4763,90.6023,0.00013916,1.568e-05,0.0,0 STARLINK-5069,1 55640U 23021N   24190.51334567  .00001568  00000-0  13916-3 0  9991,2 55640  69.9998 280.3661 0003251 269.4763  90.6023 14.98334816 77243,6950.178,96.107,574.303,569.783,0.0
55640.0,STARLINK-5069,PAYLOAD,2024-07-08 13:55:20,14.98336464,0.0003231,69.9998,280.1977,270.322,89.7568,0.00015681,1.779e-05,0.0,0 STARLINK-5069,1 55640U 23021N   24190.58010412  .00001779  00000-0  15681-3 0  9993,2 55640  69.9998 280.1977 0003231 270.3220  89.7568 14.98336464 77556,6950.173,96.107,574.284,569.792,0.0
55640.0,STARLINK-5069,PAYLOAD,2024-07-08 15:31:28,14.9833817,0.0003228,69.9999,280.0295,270.6057,89.4732,0.00017434,1.988e-05,0.0,0 STARLINK-5069,1 55640U 23021N   24190.64686246  .00001988  00000-0  17434-3 0  9994,2 55640  69.9999 280.0295 0003228 270.6057  89.4732 14.98338170 77563,6950.168,96.106,574.276,569.789,0.0
55640.0,STARLINK-5069,PAYLOAD,2024-07-09 12:21:14,14.98328034,0.0003004,69.9997,277.84,263.1452,96.9366,0.0001415,1.596e-05,0.0,0 STARLINK-5069,1 55640U 23021N   24191.51474917  .00001596  00000-0  14150-3 0  9998,2 55640  69.9997 277.8400 0003004 263.1452  96.9366 14.98328034 77396,6950.199,96.107,574.152,569.976,0.0
55640.0,STARLINK-5069,PAYLOAD,2024-07-09 13:57:22,14.98327385,0.0003015,69.9997,277.6718,263.8874,96.1941,0.00013029,1.462e-05,0.0,0 STARLINK-5069,1 55640U 23021N   24191.58150984  .00001462  00000-0  13029-3 0  9996,2 55640  69.9997 277.6718 0003015 263.8874  96.1941 14.98327385 77707,6950.201,96.107,574.161,569.97,0.0
55640.0,STARLINK-5069,PAYLOAD,2024-07-09 15:33:30,14.98329213,0.0003022,69.9998,277.5035,264.3562,95.7253,0.00014034,1.582e-05,0.0,0 STARLINK-5069,1 55640U 23021N   24191.64826861  .00001582  00000-0  14034-3 0  9997,2 55640  69.9998 277.5035 0003022 264.3562  95.7253 14.98329213 77711,6950.195,96.107,574.161,569.96,0.0
55640.0,STARLINK-5069,PAYLOAD,2024-07-10 12:23:15,14.98331135,0.0003383,69.9997,275.3164,270.0135,90.0636,-4.5747e-05,-6.39e-06,0.0,0 STARLINK-5069,1 55640U 23021N   24192.51615170 -.00000639  00000-0 -45747-4 0  9993,2 55640  69.9997 275.3164 0003383 270.0135  90.0636 14.98331135 77549,6950.189,96.107,574.406,569.703,0.0
